[{"OBJECT_NAME":"STARLINK-2648","OBJECT_ID":"2021-044AT","EPOCH":"2026-03-09T12:42:20.171232","MEAN_MOTION":15.06406221,"ECCENTRICITY":0.00014086,"INCLINATION":53.0552,"RA_OF_ASC_NODE":112.3376,"ARG_OF_PERICENTER":85.3329,"MEAN_ANOMALY":274.7821,"EPHEMERIS_TYPE":0,"CLASSIFICATION_TYPE":"U","NORAD_CAT_ID":48679,"ELEMENT_SET_NO":999,"REV_AT_EPOCH":26382,"BSTAR":0.00015683493,"MEAN_MOTION_DOT":2.056e-5,"MEAN_MOTION_DDOT":0},{"OBJECT_NAME":"HELIOS 1A","OBJECT_ID":"1995-033A","EPOCH":"2026-03-09T15:20:38.403168","MEAN_MOTION":15.05208405,"ECCENTRICITY":0.0012543,"INCLINATION":98.2085,"RA_OF_ASC_NODE":312.7113,"ARG_OF_PERICENTER":11.1866,"MEAN_ANOMALY":348.9636,"EPHEMERIS_TYPE":0,"CLASSIFICATION_TYPE":"U","NORAD_CAT_ID":23605,"ELEMENT_SET_NO":999,"REV_AT_EPOCH":65318,"BSTAR":0.00025897,"MEAN_MOTION_DOT":3.631e-5,"MEAN_MOTION_DDOT":0}]
